{"type": "FeatureCollection", "features": [ {"type": "Feature", "properties": {"norad_id": 66584, "name": "STARLINK-35939", "group": "last-30-days", "lat": 2.6928603409167158, "lon": -129.78222910490356, "alt_km": 397.9998743220631, "timestamp": "2025-12-24T07:45:04.930309+00:00", "meta": {"OBJECT_NAME": "STARLINK-35939", "OBJECT_ID": "2025-268AD", "EPOCH": "2025-12-24T00:00:00.999648", "MEAN_MOTION": 15.566308, "ECCENTRICITY": 0.00010383, "INCLINATION": 43.0004, "RA_OF_ASC_NODE": 55.0171, "ARG_OF_PERICENTER": 263.1265, "MEAN_ANOMALY": 261.0688, "EPHEMERIS_TYPE": 0, "CLASSIFICATION_TYPE": "U", "NORAD_CAT_ID": 66584, "ELEMENT_SET_NO": 999, "REV_AT_EPOCH": 611, "BSTAR": -0.0087062996, "MEAN_MOTION_DOT": -0.00591871, "MEAN_MOTION_DDOT": 0}, "tle": {"line1": "1 66584U 25268AD  25358.00001157 -.00591871  00000+0 -87063-2 0  9997", "line2": "2 66584  43.0004  55.0171 0001038 263.1265 261.0688 15.56630800  6111"}}, "geometry": {"type": "Point", "coordinates": [-129.78222910490356, 2.6928603409167158]}}, {"type": "Feature", "properties": {"norad_id": 66585, "name": "STARLINK-35963", "group": "last-30-days", "lat": 40.679749023883225, "lon": 166.0053245454581, "alt_km": 431.6761054754388, "timestamp": "2025-12-24T07:45:04.930319+00:00", "meta": {"OBJECT_NAME": "STARLINK-35963", "OBJECT_ID": "2025-268AE", "EPOCH": "2025-12-24T00:00:00.999648", "MEAN_MOTION": 15.44554545, "ECCENTRICITY": 0.00015344, "INCLINATION": 43.0004, "RA_OF_ASC_NODE": 55.1501, "ARG_OF_PERICENTER": 277.46, "MEAN_ANOMALY": 192.4612, "EPHEMERIS_TYPE": 0, "CLASSIFICATION_TYPE": "U", "NORAD_CAT_ID": 66585, "ELEMENT_SET_NO": 999, "REV_AT_EPOCH": 611, "BSTAR": -0.047992115, "MEAN_MOTION_DOT": -0.02031209, "MEAN_MOTION_DDOT": 0}, "tle": {"line1": "1 66585U 25268AE  25358.00001157 -.02031209  00000+0 -47992-1 0  9990", "line2": "2 66585  43.0004  55.1501 0001534 277.4600 192.4612 15.44554545  6114"}}, "geometry": {"type": "Point", "coordinates": [166.0053245454581, 40.679749023883225]}}, {"type": "Feature", "properties": {"norad_id": 66586, "name": "TJS-21", "group": "last-30-days", "lat": 57.82372429359054, "lon": -145.66438024269388, "alt_km": 33898.573088312616, "timestamp": "2025-12-24T07:45:04.930332+00:00", "meta": {"OBJECT_NAME": "TJS-21", "OBJECT_ID": "2025-269A", "EPOCH": "2025-12-18T16:58:10.473888", "MEAN_MOTION": 2.00580748, "ECCENTRICITY": 0.6806869, "INCLINATION": 63.2733, "RA_OF_ASC_NODE": 161.7218, "ARG_OF_PERICENTER": 269.7428, "MEAN_ANOMALY": 18.6663, "EPHEMERIS_TYPE": 0, "CLASSIFICATION_TYPE": "U", "NORAD_CAT_ID": 66586, "ELEMENT_SET_NO": 999, "REV_AT_EPOCH": 55, "BSTAR": -0.059507049, "MEAN_MOTION_DOT": 1.084e-05, "MEAN_MOTION_DDOT": 0}, "tle": {"line1": "1 66586U 25269A   25352.70706567  .00001084  00000+0 -59507-1 0  9990", "line2": "2 66586  63.2733 161.7218 6806869 269.7428  18.6663  2.00580748   558"}}, "geometry": {"type": "Point", "coordinates": [-145.66438024269388, 57.82372429359054]}}, {"type": "Feature", "properties": {"norad_id": 66588, "name": "STARLINK-36076", "group": "last-30-days", "lat": -41.22953811002224, "lon": 16.158713448578297, "alt_km": 445.67945042098563, "timestamp": "2025-12-24T07:45:04.930346+00:00", "meta": {"OBJECT_NAME": "STARLINK-36076", "OBJECT_ID": "2025-270A", "EPOCH": "2025-12-23T18:12:07.653024", "MEAN_MOTION": 15.40717782, "ECCENTRICITY": 0.00022077, "INCLINATION": 43.0004, "RA_OF_ASC_NODE": 129.291, "ARG_OF_PERICENTER": 263.5798, "MEAN_ANOMALY": 96.4807, "EPHEMERIS_TYPE": 0, "CLASSIFICATION_TYPE": "U", "NORAD_CAT_ID": 66588, "ELEMENT_SET_NO": 999, "REV_AT_EPOCH": 604, "BSTAR": 0.0010378149, "MEAN_MOTION_DOT": 0.00043322, "MEAN_MOTION_DDOT": 0}, "tle": {"line1": "1 66588U 25270A   25357.75842191  .00043322  00000+0  10378-2 0  9992", "line2": "2 66588  43.0004 129.2910 0002207 263.5798  96.4807 15.40717782  6047"}}, "geometry": {"type": "Point", "coordinates": [16.158713448578297, -41.22953811002224]}}, {"type": "Feature", "properties": {"norad_id": 66589, "name": "STARLINK-35447", "group": "last-30-days", "lat": -3.6292992246913256, "lon": 121.89308998957262, "alt_km": 443.73999938627185, "timestamp": "2025-12-24T07:45:04.930357+00:00", "meta": {"OBJECT_NAME": "STARLINK-35447", "OBJECT_ID": "2025-270B", "EPOCH": "2025-12-23T16:12:58.169664", "MEAN_MOTION": 15.40729433, "ECCENTRICITY": 0.00015236, "INCLINATION": 43.001, "RA_OF_ASC_NODE": 129.5272, "ARG_OF_PERICENTER": 275.3218, "MEAN_ANOMALY": 84.7465, "EPHEMERIS_TYPE": 0, "CLASSIFICATION_TYPE": "U", "NORAD_CAT_ID": 66589, "ELEMENT_SET_NO": 999, "REV_AT_EPOCH": 614, "BSTAR": 0.001156158, "MEAN_MOTION_DOT": 0.00048346, "MEAN_MOTION_DDOT": 0}, "tle": {"line1": "1 66589U 25270B   25357.67567326  .00048346  00000+0  11562-2 0  9995", "line2": "2 66589  43.0010 129.5272 0001523 275.3218  84.7465 15.40729433  6144"}}, "geometry": {"type": "Point", "coordinates": [121.89308998957262, -3.6292992246913256]}}, {"type": "Feature", "properties": {"norad_id": 66590, "name": "STARLINK-35429", "group": "last-30-days", "lat": 42.44788640160891, "lon": -155.46647407791636, "alt_km": 438.391585274092, "timestamp": "2025-12-24T07:45:04.930367+00:00", "meta": {"OBJECT_NAME": "STARLINK-35429", "OBJECT_ID": "2025-270C", "EPOCH": "2025-12-23T18:57:05.300352", "MEAN_MOTION": 15.40759913, "ECCENTRICITY": 0.00021935, "INCLINATION": 43.0027, "RA_OF_ASC_NODE": 128.6594, "ARG_OF_PERICENTER": 269.5993, "MEAN_ANOMALY": 90.4612, "EPHEMERIS_TYPE": 0, "CLASSIFICATION_TYPE": "U", "NORAD_CAT_ID": 66590, "ELEMENT_SET_NO": 999, "REV_AT_EPOCH": 616, "BSTAR": 0.0014864851, "MEAN_MOTION_DOT": 0.00062426, "MEAN_MOTION_DDOT": 0}, "tle": {"line1": "1 66590U 25270C   25357.78964468  .00062426  00000+0  14865-2 0  9991", "line2": "2 66590  43.0027 128.6594 0002193 269.5993  90.4612 15.40759913  6166"}}, "geometry": {"type": "Point", "coordinates": [-155.46647407791636, 42.44788640160891]}}, {"type": "Feature", "properties": {"norad_id": 66591, "name": "STARLINK-36058", "group": "last-30-days", "lat": 7.598350107421975, "lon": -62.856819807796874, "alt_km": 443.1439481256748, "timestamp": "2025-12-24T07:45:04.930378+00:00", "meta": {"OBJECT_NAME": "STARLINK-36058", "OBJECT_ID": "2025-270D", "EPOCH": "2025-12-24T00:00:00.999648", "MEAN_MOTION": 15.40684723, "ECCENTRICITY": 0.00014431, "INCLINATION": 43.0007, "RA_OF_ASC_NODE": 127.2349, "ARG_OF_PERICENTER": 277.3057, "MEAN_ANOMALY": 258.0125, "EPHEMERIS_TYPE": 0, "CLASSIFICATION_TYPE": "U", "NORAD_CAT_ID": 66591, "ELEMENT_SET_NO": 999, "REV_AT_EPOCH": 599, "BSTAR": 0.00024874011, "MEAN_MOTION_DOT": 0.00010095, "MEAN_MOTION_DDOT": 0}, "tle": {"line1": "1 66591U 25270D   25358.00001157  .00010095  00000+0  24874-3 0  9992", "line2": "2 66591  43.0007 127.2349 0001443 277.3057 258.0125 15.40684723  5990"}}, "geometry": {"type": "Point", "coordinates": [-62.856819807796874, 7.598350107421975]}}, {"type": "Feature", "properties": {"norad_id": 66592, "name": "STARLINK-36066", "group": "last-30-days", "lat": -33.940032220330814, "lon": 79.67802541835884, "alt_km": 446.0040135033105, "timestamp": "2025-12-24T07:45:04.930389+00:00", "meta": {"OBJECT_NAME": "STARLINK-36066", "OBJECT_ID": "2025-270E", "EPOCH": "2025-12-23T16:25:52.540032", "MEAN_MOTION": 15.40757063, "ECCENTRICITY": 9.856e-05, "INCLINATION": 43.0002, "RA_OF_ASC_NODE": 129.5941, "ARG_OF_PERICENTER": 268.7494, "MEAN_ANOMALY": 91.3249, "EPHEMERIS_TYPE": 0, "CLASSIFICATION_TYPE": "U", "NORAD_CAT_ID": 66592, "ELEMENT_SET_NO": 999, "REV_AT_EPOCH": 593, "BSTAR": 0.0015872242, "MEAN_MOTION_DOT": 0.00066707, "MEAN_MOTION_DDOT": 0}, "tle": {"line1": "1 66592U 25270E   25357.68463588  .00066707  00000+0  15872-2 0  9994", "line2": "2 66592  43.0002 129.5941 0000985 268.7494  91.3249 15.40757063  5935"}}, "geometry": {"type": "Point", "coordinates": [79.67802541835884, -33.940032220330814]}}, {"type": "Feature", "properties": {"norad_id": 66593, "name": "STARLINK-36031", "group": "last-30-days", "lat": 21.299183901978175, "lon": 150.42910425758535, "alt_km": 440.78051699094976, "timestamp": "2025-12-24T07:45:04.930399+00:00", "meta": {"OBJECT_NAME": "STARLINK-36031", "OBJECT_ID": "2025-270F", "EPOCH": "2025-12-22T18:16:19.903008", "MEAN_MOTION": 15.40709411, "ECCENTRICITY": 0.00021218, "INCLINATION": 43.004, "RA_OF_ASC_NODE": 134.7018, "ARG_OF_PERICENTER": 277.8228, "MEAN_ANOMALY": 82.2387, "EPHEMERIS_TYPE": 0, "CLASSIFICATION_TYPE": "U", "NORAD_CAT_ID": 66593, "ELEMENT_SET_NO": 999, "REV_AT_EPOCH": 589, "BSTAR": 0.00056790845, "MEAN_MOTION_DOT": 0.000235, "MEAN_MOTION_DDOT": 0}, "tle": {"line1": "1 66593U 25270F   25356.76134147  .00023500  00000+0  56791-3 0  9999", "line2": "2 66593  43.0040 134.7018 0002121 277.8228  82.2387 15.40709411  5892"}}, "geometry": {"type": "Point", "coordinates": [150.42910425758535, 21.299183901978175]}}, {"type": "Feature", "properties": {"norad_id": 66594, "name": "STARLINK-36032", "group": "last-30-days", "lat": 30.66721775213537, "lon": -94.04900805237267, "alt_km": 440.8951694518155, "timestamp": "2025-12-24T07:45:04.930416+00:00", "meta": {"OBJECT_NAME": "STARLINK-36032", "OBJECT_ID": "2025-270G", "EPOCH": "2025-12-23T15:37:29.022240", "MEAN_MOTION": 15.40717156, "ECCENTRICITY": 0.00031713, "INCLINATION": 43.0045, "RA_OF_ASC_NODE": 129.3366, "ARG_OF_PERICENTER": 281.74, "MEAN_ANOMALY": 78.3101, "EPHEMERIS_TYPE": 0, "CLASSIFICATION_TYPE": "U", "NORAD_CAT_ID": 66594, "ELEMENT_SET_NO": 999, "REV_AT_EPOCH": 584, "BSTAR": 0.0010129221, "MEAN_MOTION_DOT": 0.00042272, "MEAN_MOTION_DDOT": 0}, "tle": {"line1": "1 66594U 25270G   25357.65103035  .00042272  00000+0  10129-2 0  9992", "line2": "2 66594  43.0045 129.3366 0003171 281.7400  78.3101 15.40717156  5846"}}, "geometry": {"type": "Point", "coordinates": [-94.04900805237267, 30.66721775213537]}}]}